ORBCOMM FM06            
1 25118U 97084G   26193.32638547  .00000536  00000+0  18331-3 0  9996
2 25118  45.0142 291.6869 0001341 223.9962 167.8068 14.47623379498034
ORBCOMM FM04            
1 25159U 98007C   26193.75540272  .00000362  00000+0  16932-3 0  9993
2 25159 107.9633 222.0444 0041924 281.0236  78.6190 14.35782034480261
ORBCOMM FM19            
1 25415U 98046C   26193.22188021  .00000477  00000+0  19670-3 0  9992
2 25415  44.9931 124.5568 0003329  42.9087 108.5699 14.39538200460381
ORBCOMM FM20            
1 25416U 98046D   26193.23044279  .00000323  00000+0  15202-3 0  9997
2 25416  44.9931 132.7157 0001680 341.6287  18.4501 14.38097395460392
ORBCOMM FM27            
1 25481U 98053G   26192.48362371  .00000334  00000+0  15260-3 0  9995
2 25481  45.0035 219.9500 0002441 278.1343  81.9229 14.39181226453734
ORBCOMM FM32            
1 25982U 99065C   26193.03773816  .00000318  00000+0  15326-3 0  9992
2 25982  45.0156  55.6091 0005402 176.7380 183.3505 14.37165596390664
ORBCOMM FM109           
1 40086U 14040A   26193.78089537  .00000134  00000+0  64615-4 0  9998
2 40086  47.0044 330.4807 0001595 314.4236  45.6519 14.58871261638085
ORBCOMM FM110           
1 41182U 15081D   26193.51184114  .00000172  00000+0  72512-4 0  9997
2 41182  47.0008 241.6985 0003492 211.7770 148.2905 14.58916062561323
ORBCOMM FM118           
1 41183U 15081E   26193.61472838  .00000067  00000+0  50345-4 0  9995
2 41183  47.0028 241.5492 0002752 174.4801 185.6116 14.58902657561443
ORBCOMM FM112           
1 41184U 15081F   26193.27637284  .00000356  00000+0  11151-3 0  9998
2 41184  46.9979 151.6029 0003845 316.6291  43.4292 14.58936102562619
ORBCOMM FM113           
1 41185U 15081G   26193.25385966  .00000141  00000+0  65989-4 0  9995
2 41185  46.9996 152.0986 0002371 310.5234  49.5445 14.58880263562599
ORBCOMM FM108           
1 41187U 15081J   26193.62681939  .00000283  00000+0  96107-4 0  9990
2 41187  47.0052  61.9155 0002797 312.7236  47.3414 14.58908285563790
ORBCOMM FM117           
1 41188U 15081K   26193.66101646  .00000260  00000+0  91198-4 0  9997
2 41188  47.0016  60.3815 0003220 319.6032  40.4614 14.58895460563841
ORBCOMM FM116           
1 41189U 15081L   26193.23026491  .00000069  00000+0  50766-4 0  9998
2 41189  47.0013 152.2072 0001450 221.9214 138.1561 14.58903801562591
